ONEWEB-0228             
1 48780U 21045P   24182.84932114 -.00000019  00000+0 -86230-4 0  9992
2 48780  87.9024  41.7302 0001938  81.2765 278.8585 13.15069437150149
